{
    "links": {
        "self": "http://www.neowsapp.com/rest/v1/neo/3831840?api_key=iIulBulltgU6a56xZRHN4H3l9WmuAYTsLGpBGhQ2"
    },
    "id": "3831840",
    "neo_reference_id": "3831840",
    "name": "(2018 TR5)",
    "designation": "2018 TR5",
    "nasa_jpl_url": "http://ssd.jpl.nasa.gov/sbdb.cgi?sstr=3831840",
    "absolute_magnitude_h": 24.1,
    "estimated_diameter": {
        "kilometers": {
            "estimated_diameter_min": 0.040230458,
            "estimated_diameter_max": 0.0899580388
        },
        "meters": {
            "estimated_diameter_min": 40.2304579834,
            "estimated_diameter_max": 89.9580388169
        },
        "miles": {
            "estimated_diameter_min": 0.0249980399,
            "estimated_diameter_max": 0.0558973165
        },
        "feet": {
            "estimated_diameter_min": 131.9896957704,
            "estimated_diameter_max": 295.1379320721
        }
    },
    "is_potentially_hazardous_asteroid": false,
    "close_approach_data": [
        {
            "close_approach_date": "2018-10-20",
            "close_approach_date_full": "2018-Oct-20 01:56",
            "epoch_date_close_approach": 1540000560000,
            "relative_velocity": {
                "kilometers_per_second": "12.1627459325",
                "kilometers_per_hour": "43785.885357068",
                "miles_per_hour": "27206.8463764515"
            },
            "miss_distance": {
                "astronomical": "0.1338428902",
                "lunar": "52.0648842878",
                "kilometers": "20022611.288563874",
                "miles": "12441473.7359105012"
            },
            "orbiting_body": "Earth"
        }
    ],
    "orbital_data": {
        "orbit_id": "3",
        "orbit_determination_date": "2018-10-26 06:54:40",
        "first_observation_date": "2018-10-10",
        "last_observation_date": "2018-10-26",
        "data_arc_in_days": 16,
        "observations_used": 25,
        "orbit_uncertainty": "8",
        "minimum_orbit_intersection": ".13279",
        "jupiter_tisserand_invariant": "3.186",
        "epoch_osculation": "2458403.5",
        "eccentricity": ".5512884529632224",
        "semi_major_axis": "2.479824474470397",
        "inclination": "19.18157864547198",
        "ascending_node_longitude": "22.41053989777619",
        "orbital_period": "1426.36226132873",
        "perihelion_distance": "1.112725876319276",
        "perihelion_argument": "19.20784883666041",
        "aphelion_distance": "3.846923072621518",
        "perihelion_time": "2458425.015518859751",
        "mean_anomaly": "354.569691725933",
        "mean_motion": ".2523903006692292",
        "equinox": "J2000",
        "orbit_class": {
            "orbit_class_type": "AMO",
            "orbit_class_description": "Near-Earth asteroid orbits similar to that of 1221 Amor",
            "orbit_class_range": "1.017 AU < q (perihelion) < 1.3 AU"
        }
    },
    "is_sentry_object": false
}